NORAD_CAT_ID,OBJECT_NAME,OBJECT_TYPE,EPOCH,MEAN_MOTION,ECCENTRICITY,INCLINATION,RA_OF_ASC_NODE,ARG_OF_PERICENTER,MEAN_ANOMALY,BSTAR,MEAN_MOTION_DOT,MEAN_MOTION_DDOT,TLE_LINE0,TLE_LINE1,TLE_LINE2,SEMIMAJOR_AXIS,PERIOD,APOGEE,PERIGEE,DECAYED
52303.0,STARLINK-3742,PAYLOAD,2022-08-20 22:00:00,15.08846026,0.0001696999999999,53.2165,160.5469,59.8206,142.6718,-0.00085038,-0.00013799,0.0,0 STARLINK-3742,1 52303U 22041AU  22232.91667824 -.00013799  00000-0 -85038-3 0  9994,2 52303  53.2165 160.5469 0001697  59.8206 142.6718 15.08846026 19965,6917.861999999999,95.437,540.901,538.553,0.0
52303.0,STARLINK-3742,PAYLOAD,2022-08-21 14:00:01,15.08843757,0.0001639,53.2167,157.5538,58.6079,167.0719,-0.00061185,-0.00010013,0.0,0 STARLINK-3742,1 52303U 22041AU  22233.58334491 -.00010013  00000-0 -61185-3 0  9992,2 52303  53.2167 157.5538 0001639  58.6079 167.0719 15.08843757  1300,6917.869000000002,95.437,540.868,538.6,0.0
52303.0,STARLINK-3742,PAYLOAD,2022-08-21 22:00:00,15.0884328,0.0001645,53.2169,156.058,58.7593,178.5115,-0.0016059,-0.00025757,0.0,0 STARLINK-3742,1 52303U 22041AU  22233.91667824 -.00025757  00000-0 -16059-2 0  9998,2 52303  53.2169 156.0580 0001645  58.7593 178.5115 15.08843280 20110,6917.87,95.437,540.873,538.597,0.0
52303.0,STARLINK-3742,PAYLOAD,2022-08-22 12:00:00,15.08840729,0.0001636,53.2169,153.4392,57.6952,109.8464,-0.00084742,-0.0001375,0.0,0 STARLINK-3742,1 52303U 22041AU  22234.50001157 -.00013750  00000-0 -84742-3 0  9990,2 52303  53.2169 153.4392 0001636  57.6952 109.8464 15.08840729 20196,6917.878000000002,95.438,540.875,538.611,0.0
52303.0,STARLINK-3742,PAYLOAD,2022-08-22 22:00:00,15.08855016,0.0001669,53.2171,151.5693,59.8571,212.1673,-0.0014337999999999,-0.00023044,0.0,0 STARLINK-3742,1 52303U 22041AU  22234.91667824 -.00023044  00000-0 -14338-2 0  9994,2 52303  53.2171 151.5693 0001669  59.8571 212.1673 15.08855016  1306,6917.834,95.437,540.854,538.545,0.0
52303.0,STARLINK-3742,PAYLOAD,2022-08-23 06:00:00,15.08827347,0.000176,53.2168,150.07399999999996,54.2843,229.3447,0.002306,0.0003659,0.0,0 STARLINK-3742,1 52303U 22041AU  22235.25001157  .00036590  00000-0  23060-2 0  9993,2 52303  53.2168 150.0740 0001760  54.2843 229.3447 15.08827347 20319,6917.919,95.438,541.002,538.567,0.0
52303.0,STARLINK-3742,PAYLOAD,2022-08-23 14:00:01,15.08833646,0.0001648,53.217,148.576,62.6783,232.5543,0.001306,0.00020554,0.0,0 STARLINK-3742,1 52303U 22041AU  22235.58334491  .00020554  00000-0  13060-2 0  9991,2 52303  53.2170 148.5760 0001648  62.6783 232.5543 15.08833646  1307,6917.9,95.438,540.905,538.625,0.0
52303.0,STARLINK-3742,PAYLOAD,2022-08-23 22:00:01,15.08862374,0.0001704,53.2174,147.083,62.5272,244.3592,-0.001178,-0.00018999,0.0,0 STARLINK-3742,1 52303U 22041AU  22235.91668981 -.00018999  00000-0 -11780-2 0  9991,2 52303  53.2174 147.0830 0001704  62.5272 244.3592 15.08862374 20416,6917.812,95.436,540.856,538.498,0.0
52303.0,STARLINK-3742,PAYLOAD,2022-08-24 14:00:01,15.08814923,0.000158,53.2167,144.0871,63.4081,266.6525,0.0018805999999999,0.00029748,0.0,0 STARLINK-3742,1 52303U 22041AU  22236.58334491  .00029748  00000-0  18806-2 0  9999,2 52303  53.2167 144.0871 0001580  63.4081 266.6525 15.08814923  1307,6917.956999999999,95.439,540.915,538.729,0.0
52303.0,STARLINK-3742,PAYLOAD,2022-08-24 22:00:00,15.08847356,0.0001663,53.2168,142.5919,61.5379,280.0964,-0.0017849,-0.00028588,0.0,0 STARLINK-3742,1 52303U 22041AU  22236.91667824 -.00028588  00000-0 -17849-2 0  9994,2 52303  53.2168 142.5919 0001663  61.5379 280.0964 15.08847356  1308,6917.858,95.437,540.873,538.572,0.0
52303.0,STARLINK-3742,PAYLOAD,2022-08-25 06:00:02,15.08828232,0.0001728,53.2164,141.0962,56.0779,297.2114,0.0011440999999999,0.00017961,0.0,0 STARLINK-3742,1 52303U 22041AU  22237.25002315  .00017961  00000-0  11441-2 0  9993,2 52303  53.2164 141.0962 0001728  56.0779 297.2114 15.08828232 20615,6917.916,95.438,540.977,538.586,0.0
52303.0,STARLINK-3742,PAYLOAD,2022-08-25 14:00:01,15.08815127,0.0001628,53.2165,139.5983,64.4641,300.3625,0.0029283,0.00046593,0.0,0 STARLINK-3742,1 52303U 22041AU  22237.58334491  .00046593  00000-0  29283-2 0  9998,2 52303  53.2165 139.5983 0001628  64.4641 300.3625 15.08815127  1308,6917.956,95.439,540.948,538.695,0.0
52303.0,STARLINK-3742,PAYLOAD,2022-08-25 22:00:00,15.08857921,0.0001754999999999,53.2166,138.1032,62.1721,314.2375,-0.00172,-0.00027571,0.0,0 STARLINK-3742,1 52303U 22041AU  22237.91667824 -.00027571  00000-0 -17200-2 0  9997,2 52303  53.2166 138.1032 0001755  62.1721 314.2375 15.08857921  1308,6917.826,95.436,540.905,538.477,0.0
52303.0,STARLINK-3742,PAYLOAD,2022-08-26 06:00:00,15.08847209,0.0001773,53.2164,136.6073,56.5105,331.4992,-7.527e-05,-1.486e-05,0.0,0 STARLINK-3742,1 52303U 22041AU  22238.25001157 -.00001486  00000-0 -75270-4 0  9996,2 52303  53.2164 136.6073 0001773  56.5105 331.4992 15.08847209 20762,6917.858,95.437,540.95,538.497,0.0
52303.0,STARLINK-3742,PAYLOAD,2022-08-26 14:00:01,15.08815109,0.000162,53.2165,135.1092,63.8389,335.8517,0.0015260999999999,0.00024067,0.0,0 STARLINK-3742,1 52303U 22041AU  22238.58335648  .00024067  00000-0  15261-2 0  9997,2 52303  53.2165 135.1092 0001620  63.8389 335.8517 15.08815109  1308,6917.956,95.439,540.942,538.701,0.0
52303.0,STARLINK-3742,PAYLOAD,2022-08-26 22:00:00,15.0884173,0.0001751999999999,53.2166,133.6143,60.487,350.7144,-0.0016487,-0.00026433,0.0,0 STARLINK-3742,1 52303U 22041AU  22238.91667824 -.00026433  00000-0 -16487-2 0  9990,2 52303  53.2166 133.6143 0001752  60.4870 350.7144 15.08841730  1304,6917.875,95.437,540.952,538.528,0.0
52303.0,STARLINK-3742,PAYLOAD,2022-08-27 14:00:01,15.08816763,0.0001684,53.2167,130.6202,63.6968,10.6891,0.0031069,0.00049474,0.0,0 STARLINK-3742,1 52303U 22041AU  22239.58334491  .00049474  00000-0  31069-2 0  9996,2 52303  53.2167 130.6202 0001684  63.6968  10.6891 15.08816763  1304,6917.951,95.439,540.981,538.651,0.0
52303.0,STARLINK-3742,PAYLOAD,2022-08-27 22:00:00,15.08857347,0.0001834,53.2168,129.1252,60.5651,25.4076,-0.0014513,-0.00023323,0.0,0 STARLINK-3742,1 52303U 22041AU  22239.91667824 -.00023323  00000-0 -14513-2 0  9994,2 52303  53.2168 129.1252 0001834  60.5651  25.4076 15.08857347  1307,6917.8269999999975,95.436,540.961,538.424,0.0
52303.0,STARLINK-3742,PAYLOAD,2022-08-28 06:00:00,15.08864783,0.0001811999999999,53.2167,127.629,56.0897,41.4887,-0.002611,-0.00041631,0.0,0 STARLINK-3742,1 52303U 22041AU  22240.25001157 -.00041631  00000-0 -26110-2 0  9992,2 52303  53.2167 127.6290 0001812  56.0897  41.4887 15.08864783 21064,6917.805,95.436,540.923,538.4159999999998,0.0
52303.0,STARLINK-3742,PAYLOAD,2022-08-28 14:00:01,15.0881379,0.0001648,53.2169,126.1309,63.1449,46.0498,0.0030316999999999,0.00048257,0.0,0 STARLINK-3742,1 52303U 22041AU  22240.58334491  .00048257  00000-0  30317-2 0  9991,2 52303  53.2169 126.1309 0001648  63.1449  46.0498 15.08813790  1306,6917.9609999999975,95.439,540.966,538.685,0.0
52303.0,STARLINK-3742,PAYLOAD,2022-08-28 22:00:00,15.08849564,0.0001791,53.2169,124.636,59.4617,61.3147,-0.0011842,-0.0001909,0.0,0 STARLINK-3742,1 52303U 22041AU  22240.91667824 -.00019090  00000-0 -11842-2 0  9994,2 52303  53.2169 124.6360 0001791  59.4617  61.3147 15.08849564 21165,6917.851,95.437,540.955,538.477,0.0
52303.0,STARLINK-3742,PAYLOAD,2022-08-29 14:00:01,15.08804262,0.0001585999999999,53.2169,121.6417,63.2365,80.7338,0.0026353,0.00041861,0.0,0 STARLINK-3742,1 52303U 22041AU  22241.58334491  .00041861  00000-0  26353-2 0  9991,2 52303  53.2169 121.6417 0001586  63.2365  80.7338 15.08804262  1307,6917.99,95.44,540.952,538.757,0.0
52303.0,STARLINK-3742,PAYLOAD,2022-08-29 22:00:00,15.08836703,0.0001715,53.2168,120.1469,58.8479,96.695,-0.00088987,-0.00014421,0.0,0 STARLINK-3742,1 52303U 22041AU  22241.91667824 -.00014421  00000-0 -88987-3 0  9993,2 52303  53.2168 120.1469 0001715  58.8479  96.6950 15.08836703  1308,6917.89,95.438,540.942,538.569,0.0
52303.0,STARLINK-3742,PAYLOAD,2022-08-30 14:00:01,15.08823942,0.0001579,53.2166,117.1524,65.3205,113.3976,0.0024366999999999,0.00038688,0.0,0 STARLINK-3742,1 52303U 22041AU  22242.58334491  .00038688  00000-0  24367-2 0  9998,2 52303  53.2166 117.1524 0001579  65.3205 113.3976 15.08823942  1308,6917.929,95.439,540.887,538.702,0.0
52303.0,STARLINK-3742,PAYLOAD,2022-08-30 22:00:00,15.08854793,0.0001656,53.2165,115.6577,59.4589,130.8536,-0.0034021,-0.00054049,0.0,0 STARLINK-3742,1 52303U 22041AU  22242.91667824 -.00054049  00000-0 -34021-2 0  9993,2 52303  53.2165 115.6577 0001656  59.4589 130.8536 15.08854793  1307,6917.835,95.437,540.846,538.555,0.0
52303.0,STARLINK-3742,PAYLOAD,2022-08-31 14:00:01,15.08814355,0.00015,53.2162,112.6632,66.3684,147.1125,0.0021756999999999,0.00034484,0.0,0 STARLINK-3742,1 52303U 22041AU  22243.58334491  .00034484  00000-0  21757-2 0  9999,2 52303  53.2162 112.6632 0001500  66.3684 147.1125 15.08814355  1309,6917.959,95.439,540.861,538.786,0.0
52303.0,STARLINK-3742,PAYLOAD,2022-08-31 20:00:01,15.08844443,0.0001585,53.2161,111.5422,62.2767,69.8852,-0.001617,-0.00025934,0.0,0 STARLINK-3742,1 52303U 22041AU  22243.83334491 -.00025934  00000-0 -16170-2 0  9992,2 52303  53.2161 111.5422 0001585  62.2767  69.8852 15.08844443 21606,6917.8669999999975,95.437,540.828,538.635,0.0
52303.0,STARLINK-3742,PAYLOAD,2022-08-31 22:00:00,15.08833088,0.0001634,53.216,111.1685,60.2212,164.8416,-0.00038953,-6.481e-05,0.0,0 STARLINK-3742,1 52303U 22041AU  22243.91667824 -.00006481  00000-0 -38953-3 0  9990,2 52303  53.2160 111.1685 0001634  60.2212 164.8416 15.08833088  1300,6917.901999999999,95.438,540.8969999999998,538.636,0.0
52303.0,STARLINK-3742,PAYLOAD,2022-09-01 14:00:01,15.08828674,0.0001548,53.2158,108.1739,68.3253,179.9772,0.0019899,0.00031513,0.0,0 STARLINK-3742,1 52303U 22041AU  22244.58335648  .00031513  00000-0  19899-2 0  9999,2 52303  53.2158 108.1739 0001548  68.3253 179.9772 15.08828674 21726,6917.915,95.438,540.851,538.7090000000002,0.0
